[{"OBJECT_NAME":"STARLINK-4364","OBJECT_ID":"2022-084AT","EPOCH":"2026-03-09T17:33:44.095968","MEAN_MOTION":15.05648984,"ECCENTRICITY":6.522e-5,"INCLINATION":97.6041,"RA_OF_ASC_NODE":131.2925,"ARG_OF_PERICENTER":81.7209,"MEAN_ANOMALY":278.4091,"EPHEMERIS_TYPE":0,"CLASSIFICATION_TYPE":"U","NORAD_CAT_ID":53230,"ELEMENT_SET_NO":999,"REV_AT_EPOCH":19939,"BSTAR":3.3856851e-5,"MEAN_MOTION_DOT":4.28e-6,"MEAN_MOTION_DDOT":0},{"OBJECT_NAME":"KORSAT-7","OBJECT_ID":"2023-185B","EPOCH":"2026-03-09T23:44:55.136256","MEAN_MOTION":15.00898391,"ECCENTRICITY":0.00224341,"INCLINATION":97.6243,"RA_OF_ASC_NODE":135.089,"ARG_OF_PERICENTER":307.6562,"MEAN_ANOMALY":52.2627,"EPHEMERIS_TYPE":0,"CLASSIFICATION_TYPE":"U","NORAD_CAT_ID":58463,"ELEMENT_SET_NO":999,"REV_AT_EPOCH":12440,"BSTAR":0.00023536002,"MEAN_MOTION_DOT":2.951e-5,"MEAN_MOTION_DDOT":0}]
